ISS OBJECT XW           
1 66910U 98067XW  26136.92748128  .04882306  12033-4  12474-2 0  9995
2 66910  51.6056  69.2816 0006036 231.2547 128.7935 16.27992687 26008
ISS OBJECT XY           
1 66912U 98067XY  26136.56605993  .00175762  00000+0  90738-3 0  9992
2 66912  51.6237  79.8345 0006068  91.2896 268.8800 15.80045694 25822
KNACKSAT-2              
1 67683U 98067XZ  26137.12337919  .00035405  00000+0  48184-3 0  9998
2 67683  51.6297  90.3820 0012355  84.6004 275.6397 15.57130543 15438
CORAL                   
1 67684U 98067YA  26137.09592242  .00103472  00000+0  94846-3 0  9993
2 67684  51.6254  87.1837 0014546  83.9380 276.3273 15.66812425 15478
GXIBA-1                 
1 67685U 98067YB  26136.57485036  .00044314  00000+0  57759-3 0  9999
2 67685  51.6293  92.7172 0014180  80.3694 279.8900 15.58150476 15353
UITMSAT-2               
1 67686U 98067YC  26137.15259317  .00055349  00000+0  66312-3 0  9991
2 67686  51.6279  89.0758 0010866  66.0824 294.1306 15.60326378 15450
HMU-SAT2                
1 67687U 98067YD  26137.10354367  .00036770  00000+0  48903-3 0  9991
2 67687  51.6304  90.2577 0010701  63.3504 296.8583 15.57750910 15350
LEOPARD                 
1 67688U 98067YE  26137.11745830  .00047509  00000+0  59237-3 0  9996
2 67688  51.6289  89.5968 0010561  65.6746 294.5348 15.59348176 15369
CREW DRAGON 12          
1 67796U 26031A   26137.03684517  .00005133  00000+0  10043-3 0  9992
2 67796  51.6321  94.3035 0007556  67.0843 293.0943 15.49238964567223
PROGRESS-MS 33          
1 68319U 26058A   26137.03684517  .00005133  00000+0  10043-3 0  9993
2 68319  51.6321  94.3035 0007556  67.0843 293.0943 15.49238964  8731
CYGNUS NG-24            
1 68689U 26079A   26136.58530756  .00005157  00000+0  10087-3 0  9994
2 68689  51.6318  96.5382 0007530  65.5821 294.5953 15.49234512  5635
PROGRESS-MS 34          
1 68837U 26093A   26136.58530756  .00005157  00000+0  10087-3 0  9995
2 68837  51.6318  96.5382 0007530  65.5821 294.5953 15.49234512  3133
TIANZHOU-10             
1 69049U 26102A   26136.93406066  .00012420  00000+0  14942-3 0  9992
2 69049  41.4667 152.0607 0007350 245.6746 114.3326 15.60619942  1136
