
    {
        "ARG_OF_PERICENTER": 231.2547,
        "BSTAR": 0.0012474,
        "CLASSIFICATION_TYPE": "U",
        "ECCENTRICITY": 0.0006036,
        "ELEMENT_SET_NO": 999,
        "EPHEMERIS_TYPE": 0,
        "EPOCH": "2026-05-16T22:15:34.382592",
        "INCLINATION": 51.6056,
        "MEAN_ANOMALY": 128.7935,
        "MEAN_MOTION": 16.27992687,
        "MEAN_MOTION_DDOT": 1.2033e-05,
        "MEAN_MOTION_DOT": 0.04882306,
        "NORAD_CAT_ID": 66910,
        "OBJECT_ID": "1998-067XW",
        "OBJECT_NAME": "ISS OBJECT XW",
        "RA_OF_ASC_NODE": 69.2816,
        "REV_AT_EPOCH": 2600
    },
    {
        "ARG_OF_PERICENTER": 91.2896,
        "BSTAR": 0.00090738,
        "CLASSIFICATION_TYPE": "U",
        "ECCENTRICITY": 0.0006068,
        "ELEMENT_SET_NO": 999,
        "EPHEMERIS_TYPE": 0,
        "EPOCH": "2026-05-16T13:35:07.577952",
        "INCLINATION": 51.6237,
        "MEAN_ANOMALY": 268.88,
        "MEAN_MOTION": 15.80045694,
        "MEAN_MOTION_DDOT": 0,
        "MEAN_MOTION_DOT": 0.00175762,
        "NORAD_CAT_ID": 66912,
        "OBJECT_ID": "1998-067XY",
        "OBJECT_NAME": "ISS OBJECT XY",
        "RA_OF_ASC_NODE": 79.8345,
        "REV_AT_EPOCH": 2582
    },
    {
        "ARG_OF_PERICENTER": 84.6004,
        "BSTAR": 0.00048184,
        "CLASSIFICATION_TYPE": "U",
        "ECCENTRICITY": 0.0012355,
        "ELEMENT_SET_NO": 999,
        "EPHEMERIS_TYPE": 0,
        "EPOCH": "2026-05-17T02:57:39.962016",
        "INCLINATION": 51.6297,
        "MEAN_ANOMALY": 275.6397,
        "MEAN_MOTION": 15.57130543,
        "MEAN_MOTION_DDOT": 0,
        "MEAN_MOTION_DOT": 0.00035405,
        "NORAD_CAT_ID": 67683,
        "OBJECT_ID": "1998-067XZ",
        "OBJECT_NAME": "KNACKSAT-2",
        "RA_OF_ASC_NODE": 90.382,
        "REV_AT_EPOCH": 1543
    },
    {
        "ARG_OF_PERICENTER": 83.938,
        "BSTAR": 0.00094846,
        "CLASSIFICATION_TYPE": "U",
        "ECCENTRICITY": 0.0014546,
        "ELEMENT_SET_NO": 999,
        "EPHEMERIS_TYPE": 0,
        "EPOCH": "2026-05-17T02:18:07.697088",
        "INCLINATION": 51.6254,
        "MEAN_ANOMALY": 276.3273,
        "MEAN_MOTION": 15.66812425,
        "MEAN_MOTION_DDOT": 0,
        "MEAN_MOTION_DOT": 0.00103472,
        "NORAD_CAT_ID": 67684,
        "OBJECT_ID": "1998-067YA",
        "OBJECT_NAME": "CORAL",
        "RA_OF_ASC_NODE": 87.1837,
        "REV_AT_EPOCH": 1547
    },
    {
        "ARG_OF_PERICENTER": 80.3694,
        "BSTAR": 0.00057759,
        "CLASSIFICATION_TYPE": "U",
        "ECCENTRICITY": 0.001418,
        "ELEMENT_SET_NO": 999,
        "EPHEMERIS_TYPE": 0,
        "EPOCH": "2026-05-16T13:47:47.071104",
        "INCLINATION": 51.6293,
        "MEAN_ANOMALY": 279.89,
        "MEAN_MOTION": 15.58150476,
        "MEAN_MOTION_DDOT": 0,
        "MEAN_MOTION_DOT": 0.00044314,
        "NORAD_CAT_ID": 67685,
        "OBJECT_ID": "1998-067YB",
        "OBJECT_NAME": "GXIBA-1",
        "RA_OF_ASC_NODE": 92.7172,
        "REV_AT_EPOCH": 1535
    },
    {
        "ARG_OF_PERICENTER": 66.0824,
        "BSTAR": 0.00066312,
        "CLASSIFICATION_TYPE": "U",
        "ECCENTRICITY": 0.0010866,
        "ELEMENT_SET_NO": 999,
        "EPHEMERIS_TYPE": 0,
        "EPOCH": "2026-05-17T03:39:44.049888",
        "INCLINATION": 51.6279,
        "MEAN_ANOMALY": 294.1306,
        "MEAN_MOTION": 15.60326378,
        "MEAN_MOTION_DDOT": 0,
        "MEAN_MOTION_DOT": 0.00055349,
        "NORAD_CAT_ID": 67686,
        "OBJECT_ID": "1998-067YC",
        "OBJECT_NAME": "UITMSAT-2",
        "RA_OF_ASC_NODE": 89.0758,
        "REV_AT_EPOCH": 1545
    },
    {
        "ARG_OF_PERICENTER": 63.3504,
        "BSTAR": 0.00048903,
        "CLASSIFICATION_TYPE": "U",
        "ECCENTRICITY": 0.0010701,
        "ELEMENT_SET_NO": 999,
        "EPHEMERIS_TYPE": 0,
        "EPOCH": "2026-05-17T02:29:06.173088",
        "INCLINATION": 51.6304,
        "MEAN_ANOMALY": 296.8583,
        "MEAN_MOTION": 15.5775091,
        "MEAN_MOTION_DDOT": 0,
        "MEAN_MOTION_DOT": 0.0003677,
        "NORAD_CAT_ID": 67687,
        "OBJECT_ID": "1998-067YD",
        "OBJECT_NAME": "HMU-SAT2",
        "RA_OF_ASC_NODE": 90.2577,
        "REV_AT_EPOCH": 1535
    },
    {
        "ARG_OF_PERICENTER": 65.6746,
        "BSTAR": 0.00059237,
        "CLASSIFICATION_TYPE": "U",
        "ECCENTRICITY": 0.0010561,
        "ELEMENT_SET_NO": 999,
        "EPHEMERIS_TYPE": 0,
        "EPOCH": "2026-05-17T02:49:08.397120",
        "INCLINATION": 51.6289,
        "MEAN_ANOMALY": 294.5348,
        "MEAN_MOTION": 15.59348176,
        "MEAN_MOTION_DDOT": 0,
        "MEAN_MOTION_DOT": 0.00047509,
        "NORAD_CAT_ID": 67688,
        "OBJECT_ID": "1998-067YE",
        "OBJECT_NAME": "LEOPARD",
        "RA_OF_ASC_NODE": 89.5968,
        "REV_AT_EPOCH": 1536
    },
    {
        "ARG_OF_PERICENTER": 67.0843,
        "BSTAR": 0.00010043,
        "CLASSIFICATION_TYPE": "U",
        "ECCENTRICITY": 0.0007556,
        "ELEMENT_SET_NO": 999,
        "EPHEMERIS_TYPE": 0,
        "EPOCH": "2026-05-17T00:53:03.422688",
        "INCLINATION": 51.6321,
        "MEAN_ANOMALY": 293.0943,
        "MEAN_MOTION": 15.49238964,
        "MEAN_MOTION_DDOT": 0,
        "MEAN_MOTION_DOT": 5.133e-05,
        "NORAD_CAT_ID": 67796,
        "OBJECT_ID": "2026-031A",
        "OBJECT_NAME": "CREW DRAGON 12",
        "RA_OF_ASC_NODE": 94.3035,
        "REV_AT_EPOCH": 56722
    },
    {
        "ARG_OF_PERICENTER": 67.0843,
        "BSTAR": 0.00010043,
        "CLASSIFICATION_TYPE": "U",
        "ECCENTRICITY": 0.0007556,
        "ELEMENT_SET_NO": 999,
        "EPHEMERIS_TYPE": 0,
        "EPOCH": "2026-05-17T00:53:03.422688",
        "INCLINATION": 51.6321,
        "MEAN_ANOMALY": 293.0943,
        "MEAN_MOTION": 15.49238964,
        "MEAN_MOTION_DDOT": 0,
        "MEAN_MOTION_DOT": 5.133e-05,
        "NORAD_CAT_ID": 68319,
        "OBJECT_ID": "2026-058A",
        "OBJECT_NAME": "PROGRESS-MS 33",
        "RA_OF_ASC_NODE": 94.3035,
        "REV_AT_EPOCH": 873
    },
    {
        "ARG_OF_PERICENTER": 65.5821,
        "BSTAR": 0.00010087434,
        "CLASSIFICATION_TYPE": "U",
        "ECCENTRICITY": 0.00075301,
        "ELEMENT_SET_NO": 999,
        "EPHEMERIS_TYPE": 0,
        "EPOCH": "2026-05-16T14:02:50.573184",
        "INCLINATION": 51.6318,
        "MEAN_ANOMALY": 294.5953,
        "MEAN_MOTION": 15.49234512,
        "MEAN_MOTION_DDOT": 0,
        "MEAN_MOTION_DOT": 5.157e-05,
        "NORAD_CAT_ID": 68689,
        "OBJECT_ID": "2026-079A",
        "OBJECT_NAME": "CYGNUS NG-24",
        "RA_OF_ASC_NODE": 96.5382,
        "REV_AT_EPOCH": 563
    },
    {
        "ARG_OF_PERICENTER": 65.5821,
        "BSTAR": 0.00010087434,
        "CLASSIFICATION_TYPE": "U",
        "ECCENTRICITY": 0.00075301,
        "ELEMENT_SET_NO": 999,
        "EPHEMERIS_TYPE": 0,
        "EPOCH": "2026-05-16T14:02:50.573184",
        "INCLINATION": 51.6318,
        "MEAN_ANOMALY": 294.5953,
        "MEAN_MOTION": 15.49234512,
        "MEAN_MOTION_DDOT": 0,
        "MEAN_MOTION_DOT": 5.157e-05,
        "NORAD_CAT_ID": 68837,
        "OBJECT_ID": "2026-093A",
        "OBJECT_NAME": "PROGRESS-MS 34",
        "RA_OF_ASC_NODE": 96.5382,
        "REV_AT_EPOCH": 313
    },
    {
        "ARG_OF_PERICENTER": 245.6746,
        "BSTAR": 0.00014942041,
        "CLASSIFICATION_TYPE": "U",
        "ECCENTRICITY": 0.00073509,
        "ELEMENT_SET_NO": 999,
        "EPHEMERIS_TYPE": 0,
        "EPOCH": "2026-05-16T22:25:02.841024",
        "INCLINATION": 41.4667,
        "MEAN_ANOMALY": 114.3326,
        "MEAN_MOTION": 15.60619942,
        "MEAN_MOTION_DDOT": 0,
        "MEAN_MOTION_DOT": 0.0001242,
        "NORAD_CAT_ID": 69049,
        "OBJECT_ID": "2026-102A",
        "OBJECT_NAME": "TIANZHOU-10",
        "RA_OF_ASC_NODE": 152.0607,
        "REV_AT_EPOCH": 113
    }